{
  "type": "FeatureCollection",
  "columns": {
    "ADM0_CODE": "Integer",
    "ADM0_NAME": "String",
    "ADM1_CODE": "Integer",
    "ADM1_NAME": "String",
    "ADM2_CODE": "Integer",
    "ADM2_NAME": "String",
    "DISP_AREA": "String",
    "EXP2_YEAR": "Integer",
    "STATUS": "String",
    "STR2_YEAR": "Integer",
    "Shape_Area": "Float",
    "Shape_Leng": "Float",
    "system:index": "String"
  },
  "version": 1701682634012831,
  "id": "FAO/GAUL/2015/level2",
  "properties": {
    "system:asset_size": 316969462
  },
  "features": [
    {
      "type": "Feature",
      "geometry": {
        "type": "Polygon",
        "coordinates": [
          [
            [
              79.36564451804122,
              23.16708115874064
            ],
            [
              79.36643376298481,
              23.160521841876662
            ],
            [
              79.36550187751983,
              23.156209884931116
            ],
            [
              79.36357105321702,
              23.15290125119933
            ],
            [
              79.36107845170645,
              23.150230235833597
            ],
            [
              79.35919222099513,
              23.148781028412706
            ],
            [
              79.3546216261747,
              23.145811209058753
            ],
            [
              79.35031860246656,
              23.143309694795175
            ],
            [
              79.34744250393372,
              23.140478137359516
            ],
            [
              79.34766991362144,
              23.137013459253733
            ],
            [
              79.34911910015056,
              23.13494884772118
            ],
            [
              79.35090721837902,
              23.131510896842315
            ],
            [
              79.35028740546127,
              23.12892017497476
            ],
            [
              79.347830457994,
              23.12268190925367
            ],
            [
              79.34652839044317,
              23.117727863612867
            ],
            [
              79.34544925053288,
              23.111641138374186
            ],
            [
              79.34512376998777,
              23.108060525043292
            ],
            [
              79.35337757693804,
              23.107529828847447
            ],
            [
              79.35938393940692,
              23.108100657082883
            ],
            [
              79.36717849127552,
              23.111850725363148
            ],
            [
              79.37394736491939,
              23.11325976668512
            ],
            [
              79.38099719791906,
              23.1116590087002
            ],
            [
              79.3846670158099,
              23.108921143291013
            ],
            [
              79.39050400828387,
              23.104800853255938
            ],
            [
              79.39581484026486,
              23.10231722164546
            ],
            [
              79.40110775870077,
              23.1010507483215
            ],
            [
              79.40659242408346,
              23.103240248266417
            ],
            [
              79.41426207774147,
              23.10583985710497
            ],
            [
              79.41983149579661,
              23.107338157305488
            ],
            [
              79.42582899412652,
              23.108301263506178
            ],
            [
              79.43180867131098,
              23.108341410867506
            ],
            [
              79.43781955711961,
              23.10451107438673
            ],
            [
              79.44145818263799,
              23.10200053721285
            ],
            [
              79.44431195471974,
              23.09916011614705
            ],
            [
              79.4502247566883,
              23.097291741089812
            ],
            [
              79.45401947424641,
              23.098830135344066
            ],
            [
              79.45789438337361,
              23.101857844966815
            ],
            [
              79.45941051436806,
              23.103271379224445
            ],
            [
              79.46205917687884,
              23.105237874098993
            ],
            [
              79.46601889470665,
              23.108658032664543
            ],
            [
              79.46910905721305,
              23.11281839678923
            ],
            [
              79.47149025332548,
              23.115360048898
            ],
            [
              79.47558808676948,
              23.1201713851343
            ],
            [
              79.47720227990084,
              23.12221809804378
            ],
            [
              79.48092568112452,
              23.12399290489465
            ],
            [
              79.48725756172398,
              23.128590172345767
            ],
            [
              79.49130200232,
              23.1311496802865
            ],
            [
              79.49501195932321,
              23.134311261207355
            ],
            [
              79.49948001179982,
              23.138939764212747
            ],
            [
              79.50479974024749,
              23.142168165491125
            ],
            [
              79.512884060508,
              23.144241607473177
            ],
            [
              79.52089706588056,
              23.14318926693503
            ],
            [
              79.5255434735192,
              23.1417490409223
            ],
            [
              79.53018981605737,
              23.14090180126895
            ],
            [
              79.53161674672748,
              23.140861677559336
            ],
            [
              79.53665105349813,
              23.13998767908637
            ],
            [
              79.54131972883333,
              23.139657682604238
            ],
            [
              79.55042971056959,
              23.137709029221316
            ],
            [
              79.55789868859985,
              23.134931006323054
            ],
            [
              79.56556828747432,
              23.13366022446085
            ],
            [
              79.57052681139125,
              23.130249002780257
            ],
            [
              79.5724576585097,
              23.125063041855384
            ],
            [
              79.57309526371837,
              23.116372301988825
            ],
            [
              79.57509738526508,
              23.11383947408663
            ],
            [
              79.58022092805136,
              23.111583175143394
            ],
            [
              79.58695420378687,
              23.110388183312562
            ],
            [
              79.59223822258016,
              23.10905042344533
            ],
            [
              79.59699163895569,
              23.107427339486588
            ],
            [
              79.60183865473884,
              23.107271221182668
            ],
            [
              79.60666784204324,
              23.106861031655562
            ],
            [
              79.60898656940547,
              23.10506846982367
            ],
            [
              79.60829985315962,
              23.10398936431523
            ],
            [
              79.60531673772984,
              23.10226364491603
            ],
            [
              79.60193678887194,
              23.09928055798352
            ],
            [
              79.60405037514847,
              23.096399934487028
            ],
            [
              79.60814824868336,
              23.093590733685634
            ],
            [
              79.60820626806353,
              23.093479251801167
            ],
            [
              79.60801001328936,
              23.093407887379918
            ],
            [
              79.60780938733554,
              23.09273008088684
            ],
            [
              79.60502688830235,
              23.091410168598
            ],
            [
              79.60196798607623,
              23.091071358498034
            ],
            [
              79.59723685865717,
              23.091361166339176
            ],
            [
              79.59667947785772,
              23.08687083922197
            ],
            [
              79.59691578442212,
              23.086059318775764
            ],
            [
              79.59844974787698,
              23.08249204585926
            ],
            [
              79.59964033656622,
              23.07813102964651
            ],
            [
              79.60056332986656,
              23.075161255556356
            ],
            [
              79.60115642673303,
              23.071848179103135
            ],
            [
              79.60143291825052,
              23.068271902424467
            ],
            [
              79.60115196995025,
              23.066479378474213
            ],
            [
              79.59773183873001,
              23.064588738500216
            ],
            [
              79.5940084936905,
              23.063059237544696
            ],
            [
              79.59187255824187,
              23.059010402096362
            ],
            [
              79.59229170922323,
              23.05599155654312
            ],
            [
              79.59210887734649,
              23.051840167783116
            ],
            [
              79.59086033062718,
              23.048932771908476
            ],
            [
              79.58954490641851,
              23.046408946883698
            ],
            [
              79.59043671571439,
              23.040210796465495
            ],
            [
              79.59298737557003,
              23.034770672474473
            ],
            [
              79.59030299631006,
              23.030209084595153
            ],
            [
              79.58635664213998,
              23.026721999738456
            ],
            [
              79.58529094790087,
              23.02421154276037
            ],
            [
              79.58647262306893,
              23.02198196919828
            ],
            [
              79.58721728053182,
              23.021562829847475
            ],
            [
              79.59275097304152,
              23.021259601096958
            ],
            [
              79.59784771938824,
              23.0210723496851
            ],
            [
              79.60304265463391,
              23.019681075452457
            ],
            [
              79.60272151528284,
              23.016742586496672
            ],
            [
              79.60040279878925,
              23.013790658122833
            ],
            [
              79.59995248745679,
              23.01098142099499
            ],
            [
              79.60192787538301,
              23.007802031629705
            ],
            [
              79.60603912896528,
              23.005568062502302
            ],
            [
              79.60946820179981,
              23.004101033345993
            ],
            [
              79.61129641045842,
              23.002259408245557
            ],
            [
              79.60920064760842,
              22.995347842965863
            ],
            [
              79.61073457424003,
              22.991771561445148
            ],
            [
              79.61884118294708,
              22.993367969795447
            ],
            [
              79.6235500158283,
              22.990638958950882
            ],
            [
              79.63276697420821,
              22.980030773787078
            ],
            [
              79.63359641317143,
              22.974670924143393
            ],
            [
              79.62870920197004,
              22.9712820430149
            ],
            [
              79.62095480258992,
              22.96936904745058
            ],
            [
              79.61749900109496,
              22.967687984260024
            ],
            [
              79.61582242403234,
              22.960321607655956
            ],
            [
              79.61650017109399,
              22.95725812012779
            ],
            [
              79.61659828932068,
              22.956758746971676
            ],
            [
              79.6221944510083,
              22.9475908021195
            ],
            [
              79.62969016113955,
              22.94361327972994
            ],
            [
              79.63433211512364,
              22.9370673560861
            ],
            [
              79.63979901429565,
              22.932091039372146
            ],
            [
              79.64525692980096,
              22.92793957845071
            ],
            [
              79.65567788014981,
              22.924572941951812
            ],
            [
              79.66282581378665,
              22.924470353497664
            ],
            [
              79.6761941701394,
              22.92908112406013
            ],
            [
              79.68199103109909,
              22.92596867452804
            ],
            [
              79.68792605895275,
              22.925067897198907
            ],
            [
              79.71621907463121,
              22.922798201965843
            ],
            [
              79.73403320728801,
              22.919520798655665
            ],
            [
              79.74244745610305,
              22.91973032904405
            ],
            [
              79.74403935123134,
              22.915989195709123
            ],
            [
              79.74079759879028,
              22.906807858643567
            ],
            [
              79.73831394123532,
              22.902210567767927
            ],
            [
              79.7407931489264,
              22.89882160127998
            ],
            [
              79.74513183197953,
              22.89770243715426
            ],
            [
              79.75134340930663,
              22.890848748783537
            ],
            [
              79.76708403234464,
              22.884659491154157
            ],
            [
              79.76998247313476,
              22.880789020540426
            ],
            [
              79.76140758514214,
              22.868802990484458
            ],
            [
              79.75710451648202,
              22.8645712875677
            ],
            [
              79.75389849042261,
              22.859171342818204
            ],
            [
              79.75385391274814,
              22.852371171699644
            ],
            [
              79.75624841246085,
              22.84821974872763
            ],
            [
              79.76098845254884,
              22.845642371499558
            ],
            [
              79.7692422380753,
              22.84536144446832
            ],
            [
              79.77519063499389,
              22.847189699193937
            ],
            [
              79.78385024078375,
              22.85337895117557
            ],
            [
              79.79293790760346,
              22.86322913561626
            ],
            [
              79.7981550720159,
              22.867219956488967
            ],
            [
              79.8050621859659,
              22.870261135890818
            ],
            [
              79.81044879703154,
              22.8704127202436
            ],
            [
              79.81247769122187,
              22.867902232701258
            ],
            [
              79.81056029849172,
              22.854351032952973
            ],
            [
              79.81196491414964,
              22.850449302910487
            ],
            [
              79.8205575783481,
              22.84609279557888
            ],
            [
              79.8220825850223,
              22.8392123953995
            ],
            [
              79.82525742492636,
              22.836180184766864
            ],
            [
              79.83122822630523,
              22.833290654694938
            ],
            [
              79.83706065739524,
              22.832100132891792
            ],
            [
              79.84262123156962,
              22.83270208856069
            ],
            [
              79.84615278203249,
              22.83571197765538
            ],
            [
              79.85672974975186,
              22.8504403724053
            ],
            [
              79.86235719442924,
              22.85646016948949
            ],
            [
              79.86649971586066,
              22.856259511825705
            ],
            [
              79.87116387852147,
              22.854199436582263
            ],
            [
              79.87518157855177,
              22.853878350548268
            ],
            [
              79.87824053003506,
              22.859630603701365
            ],
            [
              79.88088029724,
              22.86218124239012
            ],
            [
              79.8934861950596,
              22.86495925493607
            ],
            [
              79.896010010913,
              22.862729711836497
            ],
            [
              79.89906892137675,
              22.85172013185429
            ],
            [
              79.90046913885469,
              22.848161804902873
            ],
            [
              79.90170430484747,
              22.84763119601049
            ],
            [
              79.90676087274669,
              22.850101481143156
            ],
            [
              79.91468915276792,
              22.855398873376338
            ],
            [
              79.92080710237421,
              22.858221565600065
            ],
            [
              79.94191645271418,
              22.860598245724987
            ],
            [
              79.94840891216727,
              22.85905093773686
            ],
            [
              79.95732707214901,
              22.854689935447755
            ],
            [
              79.95925791408655,
              22.873779363875013
            ],
            [
              79.96131803497224,
              22.878479250414777
            ],
            [
              79.96558980965999,
              22.882817930899822
            ],
            [
              79.96803344902057,
              22.887651612251
            ],
            [
              79.96470696206794,
              22.890389488234927
            ],
            [
              79.96301242960958,
              22.895637814835418
            ],
            [
              79.96317298993431,
              22.91479863675161
            ],
            [
              79.96569684674796,
              22.918058178994308
            ],
            [
              79.96582172318463,
              22.92195993632876
            ],
            [
              79.95371077948022,
              22.93509193457598
            ],
            [
              79.94819044142493,
              22.939091782015016
            ],
            [
              79.94658070757417,
              22.94310947743625
            ],
            [
              79.94877456557201,
              22.94475038699631
            ],
            [
              79.94589847199576,
              22.947100301141415
            ],
            [
              79.94676349560409,
              22.94972229425925
            ],
            [
              79.95247557831702,
              22.955122254694736
            ],
            [
              79.98253443232282,
              22.971652178775102
            ],
            [
              79.98530793795821,
              22.97351162259536
            ],
            [
              79.99211698896923,
              22.97973201167695
            ],
            [
              79.99302669375915,
              22.978229341529563
            ],
            [
              79.99381146756026,
              22.977208172917774
            ],
            [
              79.99462746438816,
              22.97626287645622
            ],
            [
              79.99550591315318,
              22.97540666994656
            ],
            [
              79.9964067085664,
              22.974679895075532
            ],
            [
              79.99732967928178,
              22.974068965911577
            ],
            [
              79.99822149672468,
              22.97360080129986
            ],
            [
              79.99914009667312,
              22.97326630766524
            ],
            [
              80.0000452912361,
              22.973092428105478
            ],
            [
              80.00094603963558,
              22.973038914316916
            ],
            [
              80.00181555119129,
              22.973119174130748
            ],
            [
              80.00266278546694,
              22.97335103832502
            ],
            [
              80.00341189409168,
              22.973698865823824
            ],
            [
              80.004112023264,
              22.974180425842725
            ],
            [
              80.00470950900575,
              22.97478692612141
            ],
            [
              80.00518660733707,
              22.97549144077723
            ],
            [
              80.00556123689856,
              22.976307422481522
            ],
            [
              80.0057886075029,
              22.977208209522697
            ],
            [
              80.00586889094002,
              22.978180236590457
            ],
            [
              80.00576633971389,
              22.979219260678846
            ],
            [
              80.00547199484026,
              22.980320666628653
            ],
            [
              80.00499046154113,
              22.981439880319776
            ],
            [
              80.00428146630341,
              22.982590350128238
            ],
            [
              80.00331829852642,
              22.983749700185832
            ],
            [
              80.0020697223409,
              22.984891220226643
            ],
            [
              80.00048231364819,
              22.98606392915433
            ],
            [
              79.99849794803629,
              22.98732139679978
            ],
            [
              79.99594739537086,
              22.98881964052585
            ],
            [
              79.99198771301162,
              22.99115620942994
            ],
            [
              79.9878942163779,
              22.9925697474826
            ],
            [
              79.98603927534364,
              22.995521731775355
            ],
            [
              79.98676164632296,
              22.997960844653363
            ],
            [
              79.98805029348013,
              23.000350867582643
            ],
            [
              79.99101118267647,
              23.00333854343354
            ],
            [
              79.99299546307981,
              23.003721979529118
            ],
            [
              79.99887252109666,
              23.006580247787014
            ],
            [
              80.00020578332206,
              23.008212311657886
            ],
            [
              79.99999179380828,
              23.01037939851397
            ],
            [
              79.9980387312084,
              23.013759472912252
            ],
            [
              79.99526068220972,
              23.016060355463157
            ],
            [
              79.99312030040032,
              23.015739266013085
            ],
            [
              79.98902685703337,
              23.014236522219928
            ],
            [
              79.98636474837308,
              23.01268035112974
            ],
            [
              79.98560226572619,
              23.013919973229466
            ],
            [
              79.98809936085466,
              23.018998878215914
            ],
            [
              79.98858542503977,
              23.022842624667984
            ],
            [
              79.98862996940976,
              23.0263207360876
            ],
            [
              79.98887521903859,
              23.028108837864156
            ],
            [
              79.98994990602853,
              23.02905858170839
            ],
            [
              79.99102901699699,
              23.029598128036156
            ],
            [
              79.99314257142775,
              23.029888025193817
            ],
            [
              80.00035740157028,
              23.031430843200006
            ],
            [
              80.00929345223517,
              23.031457581441753
            ],
            [
              80.01769883837183,
              23.035738354062364
            ],
            [
              80.02758023430945,
              23.038168542454248
            ],
            [
              80.03100487734217,
              23.03985854479228
            ],
            [
              80.03624875171509,
              23.044589679361675
            ],
            [
              80.0412205995988,
              23.05163953005346
            ],
            [
              80.05091921806432,
              23.057168741284986
            ],
            [
              80.05444185080933,
              23.061150764348664
            ],
            [
              80.05954754189304,
              23.064829524990408
            ],
            [
              80.06317281815109,
              23.066769187328642
            ],
            [
              80.07058830612101,
              23.067518376207058
            ],
            [
              80.0741733926414,
              23.069520485095122
            ],
            [
              80.07553789100855,
              23.07118817591476
            ],
            [
              80.07639403750453,
              23.077101000155068
            ],
            [
              80.07858342538283,
              23.07800172902287
            ],
            [
              80.0963663597146,
              23.07986113385504
            ],
            [
              80.1015076654008,
              23.07801063528126
            ],
            [
              80.1015076654008,
              23.06305920753196
            ],
            [
              80.1043392324395,
              23.055389562725498
            ],
            [
              80.10672033214271,
              23.05344988246677
            ],
            [
              80.10972582145011,
              23.05290138847279
            ],
            [
              80.11244140023567,
              23.053400796949106
            ],
            [
              80.11519711205302,
              23.055572405420765
            ],
            [
              80.12407077293685,
              23.05982196486597
            ],
            [
              80.12821772036756,
              23.059719356623262
            ],
            [
              80.13363552629419,
              23.058390612766196
            ],
            [
              80.13497326976558,
              23.056812038210637
            ],
            [
              80.13394766546317,
              23.04911116512018
            ],
            [
              80.13664092610927,
              23.047180416874408
            ],
            [
              80.13871889163612,
              23.049592768256478
            ],
            [
              80.1440430172749,
              23.047211595686534
            ],
            [
              80.14901938132562,
              23.051153421057897
            ],
            [
              80.1540983425793,
              23.051800050463157
            ],
            [
              80.1580891756239,
              23.049102226677846
            ],
            [
              80.16279799670403,
              23.041677835186892
            ],
            [
              80.16458169597423,
              23.03593011052744
            ],
            [
              80.16924145079179,
              23.028639429961764
            ],
            [
              80.17285333335376,
              23.02488935528098
            ],
            [
              80.17616193454637,
              23.023578328922863
            ],
            [
              80.18044267725338,
              23.024920540400846
            ],
            [
              80.18418835336607,
              23.029758697579823
            ],
            [
              80.18483933652995,
              23.036469608041827
            ],
            [
              80.18147274817463,
              23.046872709862978
            ],
            [
              80.17484203464863,
              23.061552061449177
            ],
            [
              80.17617981576753,
              23.064490595516517
            ],
            [
              80.17923872674176,
              23.067919641454807
            ],
            [
              80.18562866611519,
              23.070010962377907
            ],
            [
              80.19618774827974,
              23.070528202445292
            ],
            [
              80.19766820882799,
              23.07444775257594
            ],
            [
              80.19795806656157,
              23.078621558845963
            ],
            [
              80.19705282184485,
              23.085412744753956
            ],
            [
              80.19481435574185,
              23.087570894499976
            ],
            [
              80.18553050050974,
              23.091321070717683
            ],
            [
              80.18347929883254,
              23.092859429869783
            ],
            [
              80.18266329987364,
              23.102887938583613
            ],
            [
              80.17659006104232,
              23.110718079609534
            ],
            [
              80.17339285457912,
              23.11782143856469
            ],
            [
              80.17378080365863,
              23.122271684320722
            ],
            [
              80.17498917371529,
              23.125219080324882
            ],
            [
              80.18110705653956,
              23.130721680610662
            ],
            [
              80.19359707203019,
              23.132429494519027
            ],
            [
              80.19963913686098,
              23.130980322203865
            ],
            [
              80.20272929821444,
              23.131341469767765
            ],
            [
              80.21412673612765,
              23.134748176309063
            ],
            [
              80.2213058690256,
              23.141169350935535
            ],
            [
              80.22428903873299,
              23.142351024001332
            ],
            [
              80.23355054621929,
              23.143051080373425
            ],
            [
              80.23938752772473,
              23.14989129772152
            ],
            [
              80.24489450884118,
              23.15126914846309
            ],
            [
              80.24909055034142,
              23.150809943944328
            ],
            [
              80.25573904754158,
              23.148821148221675
            ],
            [
              80.27040947833706,
              23.148660570733536
            ],
            [
              80.27105605934166,
              23.146850218302465
            ],
            [
              80.2701509125964,
              23.143791292578953
            ],
            [
              80.26674857320113,
              23.13671025150655
            ],
            [
              80.26747096828338,
              23.131252260031676
            ],
            [
              80.26970496989313,
              23.128269148074576
            ],
            [
              80.27350412576072,
              23.125152256928697
            ],
            [
              80.2756801348136,
              23.120960667836307
            ],
            [
              80.28148589709924,
              23.113879578804852
            ],
            [
              80.28295738779548,
              23.112648892424126
            ],
            [
              80.29080102247329,
              23.109589935893702
            ],
            [
              80.29220560056626,
              23.10859109687228
            ],
            [
              80.29608945460677,
              23.10171516099553
            ],
            [
              80.29918851889519,
              23.09919131710154
            ],
            [
              80.302827189426,
              23.09874101753785
            ],
            [
              80.30982793249386,
              23.10102847252487
            ],
            [
              80.31356025142705,
              23.103070721134923
            ],
            [
              80.32437354741204,
              23.104511014570047
            ],
            [
              80.32794083921226,
              23.10770820831335
            ],
            [
              80.33110681265241,
              23.11874006358522
            ],
            [
              80.33867835147393,
              23.12129952608538
            ],
            [
              80.34198703118405,
              23.123181315928424
            ],
            [
              80.34609828777502,
              23.127185603454933
            ],
            [
              80.3485196192023,
              23.132491949921675
            ],
            [
              80.34990632560569,
              23.13894867189546
            ],
            [
              80.35240342709277,
              23.140790295243914
            ],
            [
              80.35623828387988,
              23.142248431832613
            ],
            [
              80.37063672101843,
              23.143461301068132
            ],
            [
              80.37590739636728,
              23.144660793177458
            ],
            [
              80.38154817407528,
              23.14709097722758
            ],
            [
              80.38392482353879,
              23.15297256729937
            ],
            [
              80.38381779931626,
              23.160851777281618
            ],
            [
              80.38941846494188,
              23.17185244229555
            ],
            [
              80.39126007361554,
              23.173564728565598
            ],
            [
              80.39334692066501,
              23.174349504965967
            ],
            [
              80.40143571061871,
              23.174590276982407
            ],
            [
              80.40696505585683,
              23.172958281198436
            ],
            [
              80.4113706578783,
              23.16350943993041
            ],
            [
              80.4166011540715,
              23.14664061494528
            ],
            [
              80.41755541405648,
              23.144727730999755
            ],
            [
              80.42006586637469,
              23.14295294261534
            ],
            [
              80.42370006398714,
              23.141798032903907
            ],
            [
              80.43252013494572,
              23.1418604943299
            ],
            [
              80.43923104597582,
              23.144669692420155
            ],
            [
              80.4454560048941,
              23.14470985239215
            ],
            [
              80.44918822760384,
              23.146110031931943
            ],
            [
              80.45181909237252,
              23.1459003851851
            ],
            [
              80.45498505017791,
              23.143541574761993
            ],
            [
              80.45642091116514,
              23.138948715004275
            ],
            [
              80.45291162622377,
              23.131858689094805
            ],
            [
              80.45362953527976,
              23.129129760200616
            ],
            [
              80.45797717010836,
              23.127158856662508
            ],
            [
              80.45980088724717,
              23.125459930336547
            ],
            [
              80.46282864457568,
              23.124960481781795
            ],
            [
              80.4699409241844,
              23.125442117197203
            ],
            [
              80.47210802205015,
              23.123439967375003
            ],
            [
              80.47310687051221,
              23.11960062148355
            ],
            [
              80.479416511584,
              23.12005100458986
            ],
            [
              80.48169060017683,
              23.119382195994167
            ],
            [
              80.4830684788468,
              23.11234121740731
            ],
            [
              80.48542738860333,
              23.109991297002942
            ],
            [
              80.50418234057474,
              23.109050441250112
            ],
            [
              80.50519013241775,
              23.10688774826171
            ],
            [
              80.50654565331284,
              23.097826858817427
            ],
            [
              80.50547994875619,
              23.093563945907064
            ],
            [
              80.50092275137877,
              23.089100384324396
            ],
            [
              80.50383009399083,
              23.081818716102298
            ],
            [
              80.51782270575018,
              23.080480970135135
            ],
            [
              80.51820177525339,
              23.080614766636394
            ],
            [
              80.52068544311706,
              23.081479808046815
            ],
            [
              80.52208115910778,
              23.084239945653604
            ],
            [
              80.52197414289505,
              23.088930954383418
            ],
            [
              80.51994971262926,
              23.09991375990927
            ],
            [
              80.51983828399673,
              23.103851150602623
            ],
            [
              80.52094857796111,
              23.107601181950784
            ],
            [
              80.52636635764944,
              23.10799358497152
            ],
            [
              80.53058019499915,
              23.10748078488625
            ],
            [
              80.53662678098428,
              23.108430587610822
            ],
            [
              80.5417323947983,
              23.11045060301603
            ],
            [
              80.54509015490677,
              23.113357884000482
            ],
            [
              80.5498970234889,
              23.121749929081375
            ],
            [
              80.55197946354012,
              23.123631641232322
            ],
            [
              80.56060781326592,
              23.123689643481683
            ],
            [
              80.56342151779272,
              23.124630484700447
            ],
            [
              80.5684513989606,
              23.127872251846387
            ],
            [
              80.5734009723518,
              23.133071613602198
            ],
            [
              80.57412783613985,
              23.13955958215673
            ],
            [
              80.57286139238447,
              23.141771266784904
            ],
            [
              80.56816154946382,
              23.145717610565264
            ],
            [
              80.55132394902884,
              23.153088538117416
            ],
            [
              80.5494466378328,
              23.165047782146363
            ],
            [
              80.54789938795112,
              23.168490264803363
            ],
            [
              80.54515254943773,
              23.16951134590416
            ],
            [
              80.53882511368128,
              23.168610652757117
            ],
            [
              80.5315166117803,
              23.1663899967763
            ],
            [
              80.51838011540495,
              23.15841269976646
            ],
            [
              80.51579384873165,
              23.158782730234456
            ],
            [
              80.50885996181619,
              23.17053254071545
            ],
            [
              80.501814549737,
              23.175780876066177
            ],
            [
              80.49819377516647,
              23.183713637475844
            ],
            [
              80.49611583184767,
              23.186001167047625
            ],
            [
              80.47387831405564,
              23.19689028112947
            ],
            [
              80.47289279620372,
              23.200212293429583
            ],
            [
              80.47654929285001,
              23.20248196728039
            ],
            [
              80.47927830295191,
              23.20319989653292
            ],
            [
              80.49265114816316,
              23.205737148213142
            ],
            [
              80.49562087378855,
              23.20524214848736
            ],
            [
              80.49568330567931,
              23.209821656236667
            ],
            [
              80.49665090914425,
              23.21276017768148
            ],
            [
              80.5004723530846,
              23.220358530776437
            ],
            [
              80.50448556151174,
              23.225642507177955
            ],
            [
              80.51140607589214,
              23.2377713018823
            ],
            [
              80.51418855369131,
              23.246190062507523
            ],
            [
              80.51519630845338,
              23.255634448840237
            ],
            [
              80.51647160988314,
              23.25920172397408
            ],
            [
              80.52781556683483,
              23.260972020297626
            ],
            [
              80.53266710785981,
              23.2634423312479
            ],
            [
              80.53691657187726,
              23.271040655243326
            ],
            [
              80.54152731495975,
              23.27316763277727
            ],
            [
              80.55178771782029,
              23.273439608332406
            ],
            [
              80.55911400280152,
              23.27201272582226
            ],
            [
              80.56154422806522,
              23.273252367098134
            ],
            [
              80.56294883029089,
              23.280302196103282
            ],
            [
              80.56461208158048,
              23.28393191639453
            ],
            [
              80.56877684279252,
              23.28502879734398
            ],
            [
              80.57427046238293,
              23.28513140892269
            ],
            [
              80.57576874331743,
              23.28666978638744
            ],
            [
              80.57701285505395,
              23.28989815905849
            ],
            [
              80.57698607646955,
              23.292453260454657
            ],
            [
              80.57644652003201,
              23.30995971342111
            ],
            [
              80.57512663836685,
              23.316519012433886
            ],
            [
              80.57412783613985,
              23.317410791589474
            ],
            [
              80.57081465126278,
              23.317919205772622
            ],
            [
              80.56418398235395,
              23.31725920908515
            ],
            [
              80.56337693594237,
              23.31998815555051
            ],
            [
              80.56378715585933,
              23.327461635520397
            ],
            [
              80.5662752992541,
              23.338850203717218
            ],
            [
              80.56687280860578,
              23.35397990116387
            ],
            [
              80.56565108804182,
              23.35509021737701
            ],
            [
              80.55381662261037,
              23.356820401412975
            ],
            [
              80.53655988645276,
              23.357181589131248
            ],
            [
              80.53331810738139,
              23.35900978948702
            ],
            [
              80.53233261861217,
              23.36284017358259
            ],
            [
              80.53466918208368,
              23.366300395449553
            ],
            [
              80.54670875210223,
              23.373261073853524
            ],
            [
              80.54991931806593,
              23.376641100950298
            ],
            [
              80.55052135413591,
              23.37969113966208
            ],
            [
              80.54753817229944,
              23.383271729954178
            ],
            [
              80.53951184218995,
              23.387958239387036
            ],
            [
              80.53750522239204,
              23.390201198825853
            ],
            [
              80.53716185050072,
              23.392060607296603
            ],
            [
              80.53466918208368,
              23.392769660091172
            ],
            [
              80.5290284364205,
              23.3906382173417
            ],
            [
              80.5172563879386,
              23.380431337709663
            ],
            [
              80.512552102729,
              23.379450309451766
            ],
            [
              80.5081019050537,
              23.38014144374694
            ],
            [
              80.50177892548612,
              23.382482507088035
            ],
            [
              80.48874043848778,
              23.391810934960862
            ],
            [
              80.48474063507098,
              23.39273838520875
            ],
            [
              80.47866734846895,
              23.392069584650173
            ],
            [
              80.47572433611471,
              23.389670559404035
            ],
            [
              80.47355724779408,
              23.3857599439915
            ],
            [
              80.47226855813841,
              23.381951859335462
            ],
            [
              80.47126969959113,
              23.372511988007783
            ],
            [
              80.46153104779779,
              23.36985881473193
            ],
            [
              80.45630498406884,
              23.367441920036512
            ],
            [
              80.45552913399764,
              23.3650697110011
            ],
            [
              80.4547264584763,
              23.35249947269148
            ],
            [
              80.45300082415133,
              23.348629010936683
            ],
            [
              80.4426824254815,
              23.345119664864473
            ],
            [
              80.43816982476766,
              23.34501262780519
            ],
            [
              80.43369288773083,
              23.346568872690536
            ],
            [
              80.43077213815177,
              23.349810662235956
            ],
            [
              80.42890380985845,
              23.34929784912764
            ],
            [
              80.42736984435786,
              23.34977946186513
            ],
            [
              80.42003462203178,
              23.346693786155868
            ],
            [
              80.41031825274516,
              23.34577067785394
            ],
            [
              80.40416913622633,
              23.34434375905958
            ],
            [
              80.39717727190522,
              23.34714859685996
            ],
            [
              80.3949210029986,
              23.349271117052083
            ],
            [
              80.392151858667,
              23.35034127388724
            ],
            [
              80.38916875792953,
              23.350029148831204
            ],
            [
              80.38712206663072,
              23.348031511615755
            ],
            [
              80.38475867345156,
              23.34294809003231
            ],
            [
              80.38149466046252,
              23.339519029331054
            ],
            [
              80.37345933104243,
              23.338810054483222
            ],
            [
              80.37016403966018,
              23.33670978180741
            ],
            [
              80.36692672940337,
              23.332170473237763
            ],
            [
              80.35787033057473,
              23.329258684834702
            ],
            [
              80.36403729091587,
              23.31464171653058
            ],
            [
              80.36361809742509,
              23.312042099685584
            ],
            [
              80.3614866691851,
              23.308992082580524
            ],
            [
              80.35441451403717,
              23.308559511812966
            ],
            [
              80.33376442490929,
              23.30492088402968
            ],
            [
              80.32212169582641,
              23.303899720492623
            ],
            [
              80.31984759784405,
              23.304920879371725
            ],
            [
              80.3197316514589,
              23.30937998247366
            ],
            [
              80.32086866718541,
              23.315448858173283
            ],
            [
              80.30581029590854,
              23.321936839786225
            ],
            [
              80.29521101992952,
              23.333138047321867
            ],
            [
              80.29335157545721,
              23.336932799835036
            ],
            [
              80.29148766833143,
              23.344843203819114
            ],
            [
              80.29162593219714,
              23.346221108447054
            ],
            [
              80.29547860718395,
              23.35214274610758
            ],
            [
              80.29519767030484,
              23.354818259022444
            ],
            [
              80.29139846846037,
              23.356427950072025
            ],
            [
              80.28585139503875,
              23.362924839297428
            ],
            [
              80.27776253626683,
              23.359188179776833
            ],
            [
              80.27291999154721,
              23.35848805066713
            ],
            [
              80.27039170196767,
              23.353288780665462
            ],
            [
              80.26867494639478,
              23.330792605138075
            ],
            [
              80.26621797931742,
              23.32617739912029
            ],
            [
              80.26151359778358,
              23.321691535455262
            ],
            [
              80.25470009204298,
              23.31899822748517
            ],
            [
              80.2492600211377,
              23.325258860441807
            ],
            [
              80.24636161555195,
              23.334631902730994
            ],
            [
              80.24093036928002,
              23.335380987731472
            ],
            [
              80.2398067430025,
              23.33440888468907
            ],
            [
              80.23529855999155,
              23.333878267809272
            ],
            [
              80.22856974786049,
              23.33476118762039
            ],
            [
              80.22522548088311,
              23.339599299568686
            ],
            [
              80.2231385555687,
              23.340852355477896
            ],
            [
              80.217948209976,
              23.33864949405531
            ],
            [
              80.21636963125559,
              23.33716017795923
            ],
            [
              80.21395728037425,
              23.3366697302943
            ],
            [
              80.20339367423232,
              23.33567087057408
            ],
            [
              80.19635723937321,
              23.337329651184685
            ],
            [
              80.19283454760723,
              23.337142366919327
            ],
            [
              80.19381551865517,
              23.33179147320819
            ],
            [
              80.19346775749406,
              23.329071361877595
            ],
            [
              80.18266329987364,
              23.3276177526636
            ],
            [
              80.17534595084015,
              23.32566905471965
            ],
            [
              80.17024917592298,
              23.3232299423219
            ],
            [
              80.16842540102745,
              23.32080868792433
            ],
            [
              80.1651301259931,
              23.308969794757704
            ],
            [
              80.16232985996929,
              23.30291876588541
            ],
            [
              80.15680502287367,
              23.30471135470512
            ],
            [
              80.1432404415309,
              23.316559123339115
            ],
            [
              80.1233661621815,
              23.329049045520723
            ],
            [
              80.1219570937374,
              23.330690010198225
            ],
            [
              80.12034734662019,
              23.335122385965683
            ],
            [
              80.12069523450157,
              23.34003188379635
            ],
            [
              80.11871984654671,
              23.34231047946554
            ],
            [
              80.11596850807554,
              23.341351756506732
            ],
            [
              80.11229867002264,
              23.338381987252145
            ],
            [
              80.10514183086761,
              23.321241233723732
            ],
            [
              80.10114205870164,
              23.31972958334439
            ],
            [
              80.09855575177788,
              23.32166036431401
            ],
            [
              80.09712880526169,
              23.325499661267962
            ],
            [
              80.09403423672406,
              23.328839497887596
            ],
            [
              80.08911136894783,
              23.331849396294565
            ],
            [
              80.0848618687484,
              23.332638659738045
            ],
            [
              80.07305865836186,
              23.33870300601515
            ],
            [
              80.06678916084182,
              23.34747851973062
            ],
            [
              80.06395755418339,
              23.3493112658975
            ],
            [
              80.05869139893223,
              23.35031902281047
            ],
            [
              80.0456485165904,
              23.35018077652442
            ],
            [
              80.0394369861524,
              23.354430315756566
            ],
            [
              80.03507152386716,
              23.35550942422547
            ],
            [
              80.02957792364472,
              23.355540605257556
            ],
            [
              80.02459713386739,
              23.35256188696742
            ],
            [
              80.02168976396197,
              23.347157482338087
            ],
            [
              80.01603118533093,
              23.344040571487234
            ],
            [
              80.01132236007555,
              23.343153178992754
            ],
            [
              80.00222577401459,
              23.3459624914565
            ],
            [
              79.99736090840527,
              23.34877165490537
            ],
            [
              79.99247819265665,
              23.34724221696324
            ],
            [
              79.98784523422252,
              23.348602243225002
            ],
            [
              79.98301600457577,
              23.34588218354896
            ],
            [
              79.9772815973662,
              23.34633252225162
            ],
            [
              79.97297855995721,
              23.34823210426108
            ],
            [
              79.96996422480939,
              23.34923988523152
            ],
            [
              79.96740020397827,
              23.352191854598605
            ],
            [
              79.9648986746798,
              23.35612924034245
            ],
            [
              79.96415845339978,
              23.360771138556927
            ],
            [
              79.9631507112466,
              23.362238217963743
            ],
            [
              79.95610088553902,
              23.362710839466754
            ],
            [
              79.95316228709765,
              23.364641647668886
            ],
            [
              79.9523373651439,
              23.372699232679416
            ],
            [
              79.94995176620137,
              23.374429337426502
            ],
            [
              79.9451849832911,
              23.375829527348113
            ],
            [
              79.94412818628344,
              23.37869228868342
            ],
            [
              79.94433778793334,
              23.383302947245035
            ],
            [
              79.94256747062386,
              23.386879193895513
            ],
            [
              79.93905814926933,
              23.3867989289627
            ],
            [
              79.93338617635862,
              23.387119945577076
            ],
            [
              79.93312753560392,
              23.390482156574404
            ],
            [
              79.93443405211104,
              23.394669196758443
            ],
            [
              79.93625789980368,
              23.399409250713138
            ],
            [
              79.93443405211104,
              23.401192873187036
            ],
            [
              79.93000619633249,
              23.404077906273365
            ],
            [
              79.92585923868448,
              23.403199465295117
            ],
            [
              79.92138679771621,
              23.39956978018734
            ],
            [
              79.92053954281543,
              23.395998005242888
            ],
            [
              79.91870238662925,
              23.390620350625984
            ],
            [
              79.91449741549812,
              23.390321564810172
            ],
            [
              79.90886117741019,
              23.389313836267174
            ],
            [
              79.90479889167348,
              23.387329516429265
            ],
            [
              79.89964414763222,
              23.381969716181256
            ],
            [
              79.89573801907999,
              23.378772496426848
            ],
            [
              79.89092215492673,
              23.374108305877023
            ],
            [
              79.89037369657105,
              23.3699523827826
            ],
            [
              79.8872835567441,
              23.366701746756252
            ],
            [
              79.88262827920674,
              23.363687379389727
            ],
            [
              79.87753153194515,
              23.363459966487227
            ],
            [
              79.87367440712073,
              23.36634052428595
            ],
            [
              79.86876487730504,
              23.36757128720708
            ],
            [
              79.86654876592172,
              23.366291505375017
            ],
            [
              79.86290121270075,
              23.369560007152664
            ],
            [
              79.86205843587315,
              23.37315851546289
            ],
            [
              79.86266928323556,
              23.377309973119292
            ],
            [
              79.86003845622531,
              23.380899476006928
            ],
            [
              79.85714894262043,
              23.385140162171673
            ],
            [
              79.85666736205984,
              23.388158915332134
            ],
            [
              79.85742096824175,
              23.392301434677417
            ],
            [
              79.8551691041097,
              23.396577734660205
            ],
            [
              79.854393257839,
              23.400350080689257
            ],
            [
              79.85501304657345,
              23.40467100500245
            ],
            [
              79.85627047275025,
              23.40932184668329
            ],
            [
              79.85659600074158,
              23.409932697701453
            ],
            [
              79.85838411850455,
              23.414761948607957
            ],
            [
              79.85746557933804,
              23.418248952887584
            ],
            [
              79.85462956776385,
              23.42190091091284
            ],
            [
              79.85101323020305,
              23.42436239462146
            ],
            [
              79.84414619968317,
              23.425000047524733
            ],
            [
              79.84043181648799,
              23.423359050326972
            ],
            [
              79.8359593055825,
              23.422141762028318
            ],
            [
              79.83439418958781,
              23.424041305647386
            ],
            [
              79.83439418958781,
              23.426810432381664
            ],
            [
              79.83500505742671,
              23.430551647049082
            ],
            [
              79.83526817552269,
              23.432749923081243
            ],
            [
              79.83502292349505,
              23.433730951446083
            ],
            [
              79.83502292349505,
              23.437900210333364
            ],
            [
              79.83574525672663,
              23.441458530473433
            ],
            [
              79.83756456999838,
              23.448120481275815
            ],
            [
              79.83225381078475,
              23.448191768887412
            ],
            [
              79.8272328043845,
              23.447331156990433
            ],
            [
              79.82224306101472,
              23.445552029060746
            ],
            [
              79.82158764684469,
              23.441748377880874
            ],
            [
              79.81981733746065,
              23.43659817305025
            ],
            [
              79.81732023991043,
              23.435157898098545
            ],
            [
              79.81645967142022,
              23.43715105083616
            ],
            [
              79.81472063919095,
              23.439781923032832
            ],
            [
              79.81178201695717,
              23.44246186490748
            ],
            [
              79.808250462373,
              23.443251151423357
            ],
            [
              79.80461179046029,
              23.442689290541665
            ],
            [
              79.80364865299845,
              23.444000256771922
            ],
            [
              79.80435319895584,
              23.44664005616728
            ],
            [
              79.80509784467314,
              23.449101425492646
            ],
            [
              79.80516924755703,
              23.451362229078992
            ],
            [
              79.8065247797813,
              23.456062145699295
            ],
            [
              79.80838864550321,
              23.4597186082831
            ],
            [
              79.80892376106296,
              23.463049556704803
            ],
            [
              79.80779119003788,
              23.467468484844765
            ],
            [
              79.80610560340762,
              23.469889810754225
            ],
            [
              79.80352824939095,
              23.469368078089065
            ],
            [
              79.79765119167251,
              23.462010588228807
            ],
            [
              79.79570696666616,
              23.463731804804564
            ],
            [
              79.79339717132046,
              23.466567757274735
            ],
            [
              79.79493555917676,
              23.467918838865277
            ],
            [
              79.79070834947767,
              23.46674167445912
            ],
            [
              79.78830930327827,
              23.465707163321163
            ],
            [
              79.78468409752189,
              23.463308174202673
            ],
            [
              79.78179905163111,
              23.458822317882372
            ],
            [
              79.77997525743804,
              23.45382813802438
            ],
            [
              79.77668896332966,
              23.451259627990083
            ],
            [
              79.77353633690869,
              23.450702318065975
            ],
            [
              79.76956329536426,
              23.449360079206887
            ],
            [
              79.76708403234464,
              23.447910915383382
            ],
            [
              79.76381103591692,
              23.444869744085
            ],
            [
              79.76203187430674,
              23.441672603373483
            ],
            [
              79.75724722820534,
              23.43752115296521
            ],
            [
              79.75361750524581,
              23.435238144875637
            ],
            [
              79.74897564570098,
              23.434199116200872
            ],
            [
              79.74281310759073,
              23.432959525739363
            ],
            [
              79.73758704991943,
              23.431528166261984
            ],
            [
              79.73581677866312,
              23.432959517261267
            ],
            [
              79.73311012814679,
              23.4364910875032
            ],
            [
              79.73155834779516,
              23.435260387976257
            ],
            [
              79.73161183725323,
              23.432491342444635
            ],
            [
              79.73178129164495,
              23.429361059296994
            ],
            [
              79.73089396326478,
              23.426948627236673
            ],
            [
              79.72852172013988,
              23.427069024943545
            ],
            [
              79.72508819791551,
              23.427086875847113
            ],
            [
              79.72287645601864,
              23.425709033879922
            ],
            [
              79.71952771252099,
              23.42220419203778
            ],
            [
              79.71848875828051,
              23.42054982992869
            ],
            [
              79.72128906246816,
              23.419791757757796
            ],
            [
              79.7237148205667,
              23.42001916989653
            ],
            [
              79.72741140518936,
              23.420099503109945
            ],
            [
              79.7263858087159,
              23.41729025392973
            ],
            [
              79.72334472574155,
              23.412630452369402
            ],
            [
              79.7204507607694,
              23.40974991551421
            ],
            [
              79.7187517933958,
              23.40685148493375
            ],
            [
              79.71720900822442,
              23.403230708044028
            ],
            [
              79.71470740392982,
              23.4006979025226
            ],
            [
              79.71288360686088,
              23.398147322781742
            ],
            [
              79.7134187829319,
              23.395070572648503
            ],
            [
              79.71370862583399,
              23.394129701801585
            ],
            [
              79.71025279158795,
              23.39099047130849
            ],
            [
              79.70461202473187,
              23.38984891720112
            ],
            [
              79.6976468671866,
              23.38856918343826
            ],
            [
              79.69565371390121,
              23.384640667383934
            ],
            [
              79.6939681462991,
              23.376993363540635
            ],
            [
              79.69333499073534,
              23.370590081689496
            ],
            [
              79.69300055950148,
              23.368980307275994
            ],
            [
              79.69138189812914,
              23.364271503141364
            ],
            [
              79.68842105501224,
              23.358849254074354
            ],
            [
              79.68662403759775,
              23.356820407366378
            ],
            [
              79.67688533619105,
              23.347750601233646
            ],
            [
              79.6706470081903,
              23.343113080556368
            ],
            [
              79.66628159102817,
              23.337940525742123
            ],
            [
              79.66007447515365,
              23.33683020048158
            ],
            [
              79.65376491311947,
              23.334359910293582
            ],
            [
              79.64633159733673,
              23.329637711546148
            ],
            [
              79.6335918723116,
              23.322601201984547
            ],
            [
              79.62960105357591,
              23.31992134273483
            ],
            [
              79.6258464607197,
              23.317192305915807
            ],
            [
              79.61847554041262,
              23.31457928149159
            ],
            [
              79.61286158068516,
              23.312001946703145
            ],
            [
              79.60661882040631,
              23.307400113895678
            ],
            [
              79.60040279878925,
              23.30356085419563
            ],
            [
              79.59398620801538,
              23.299962409061497
            ],
            [
              79.58683822347405,
              23.295391777662623
            ],
            [
              79.58476478246784,
              23.294388455325965
            ],
            [
              79.57601154100917,
              23.28963065684303
            ],
            [
              79.56774882641828,
              23.285777990293706
            ],
            [
              79.55838024941683,
              23.280788259400833
            ],
            [
              79.55143741525393,
              23.27512071073106
            ],
            [
              79.5405571991659,
              23.2689582300935
            ],
            [
              79.53320413367963,
              23.263919414585
            ],
            [
              79.52710857834167,
              23.2624301279961
            ],
            [
              79.52448221320947,
              23.266902589876203
            ],
            [
              79.51978230803888,
              23.268561416764662
            ],
            [
              79.51349051225873,
              23.268543521369157
            ],
            [
              79.50517424858818,
              23.267861324634808
            ],
            [
              79.49804863189486,
              23.2654087910551
            ],
            [
              79.49054840831553,
              23.261988640500473
            ],
            [
              79.48506814658256,
              23.259990997707707
            ],
            [
              79.48216972771797,
              23.256017966476634
            ],
            [
              79.48208056130895,
              23.255380257228794
            ],
            [
              79.48043959210538,
              23.251260024332435
            ],
            [
              79.4783171276621,
              23.24886996674426
            ],
            [
              79.47429502959888,
              23.245449825122282
            ],
            [
              79.4688281298459,
              23.240999642939027
            ],
            [
              79.46270133040481,
              23.23571121646544
            ],
            [
              79.45691783823666,
              23.231162867228576
            ],
            [
              79.45301618961285,
              23.226971360101167
            ],
            [
              79.44966295725933,
              23.22450100636846
            ],
            [
              79.44287172911379,
              23.22032282922294
            ],
            [
              79.43572375549833,
              23.216091175820143
            ],
            [
              79.42888796301757,
              23.20994205584879
            ],
            [
              79.42391162328707,
              23.20444846749597
            ],
            [
              79.4210800621473,
              23.199262502172385
            ],
            [
              79.41911364192785,
              23.195070982697015
            ],
            [
              79.41684840234154,
              23.194031999305533
            ],
            [
              79.41326772119993,
              23.192199272480583
            ],
            [
              79.40608412598007,
              23.189412330912084
            ],
            [
              79.40017579274632,
              23.18688851455903
            ],
            [
              79.3897459803504,
              23.181399335299947
            ],
            [
              79.38495687676937,
              23.1791876476768
            ],
            [
              79.37892820050853,
              23.17516106291121
            ],
            [
              79.37394736491939,
              23.172142231361185
            ],
            [
              79.36862763100537,
              23.168681932767235
            ],
            [
              79.36564451804122,
              23.16708115874064
            ]
          ]
        ]
      },
      "id": "000100000000000017d7",
      "properties": {
        "ADM0_CODE": 115,
        "ADM0_NAME": "India",
        "ADM1_CODE": 70079,
        "ADM1_NAME": "Madhya Pradesh",
        "ADM2_CODE": 17730,
        "ADM2_NAME": "Jabalpur",
        "DISP_AREA": "NO",
        "EXP2_YEAR": 3000,
        "STATUS": "Member State",
        "STR2_YEAR": 1998,
        "Shape_Area": 0.353782678979,
        "Shape_Leng": 4.61002801599
      }
    }
  ]
}